#aV2022  4  7  0  0  0.00000000     288 DD+AD WGS84 FIT  NGA
## 2204 345600.00000000   300.00000000 59676 0.0000000000000
+   32     1  2  3  4  5  6  7  8  9 10 11 12 13 14 15 16 17
+         18 19 20 21 22 23 24 25 26 27 28 29 30 31 32  0  0
+          0  0  0  0  0  0  0  0  0  0  0  0  0  0  0  0  0
+          0  0  0  0  0  0  0  0  0  0  0  0  0  0  0  0  0
+          0  0  0  0  0  0  0  0  0  0  0  0  0  0  0  0  0
++         2  2  2  2  2  2  2  2  2  2  2  2  2  2  2  2  2
++         2  2  2  2  2  2  2  2  2  2  2  2  2  2  2  0  0
++         0  0  0  0  0  0  0  0  0  0  0  0  0  0  0  0  0
++         0  0  0  0  0  0  0  0  0  0  0  0  0  0  0  0  0
++         0  0  0  0  0  0  0  0  0  0  0  0  0  0  0  0  0
%c cc cc ccc ccc cccc cccc cccc cccc ccccc ccccc ccccc ccccc
%c cc cc ccc ccc cccc cccc cccc cccc ccccc ccccc ccccc ccccc
%f  0.0000000  0.000000000  0.00000000000  0.000000000000000
%f  0.0000000  0.000000000  0.00000000000  0.000000000000000
%i    0    0    0    0      0      0      0      0         0
%i    0    0    0    0      0      0      0      0         0
/*      NGA, ST. LOUIS,MO.                                  
/*   EPHEMERIS COMPUTED FROM 2 DAYS OF DATA                 
/*   EPOCHA v7 SMOOTHER                                     
/*   G2139 IERS2010 SATIGS SATAPC                           
*  2022  4  7  1 50  0.00000000
P  1   4696.945255  14083.323688 -22327.556932    390.908705                    
V  1 -27030.488564   5355.055343  -1996.139060     -0.088201                    
P  2  17217.595368 -15233.683535  14079.522549   -652.957640                    
V  2  16534.746000  -3035.169846 -24528.482462     -0.002509                    
P  3  11278.880355  22198.551337  -9510.147254   -196.216380                    
V  3  -9498.108509  -7427.245461 -28807.338074     -0.156506                    
P  4   1201.097887  23131.665409  12929.110854   -177.952388                    
V  4  -7790.425433  14656.747880 -25597.340953      0.029979                    
P  5   2469.754676 -17299.091690  19795.918752    -77.392797                    
V  5  18762.894313  17374.484679  12886.555095     -0.013531                    
P  6  26027.322398  -5515.607186    150.684892    257.690057                    
V  6    497.679829   1853.011110 -32269.275488      0.134391                    
P  7  20443.624023   7402.014382  15975.572491    319.339312                    
V  7 -18655.678020   5602.020715  21325.367928      0.013364                    
P  8  -5146.946992  25617.761804  -3578.712099    -62.897070                    
V  8  -4166.258855   3490.208756  31623.659570     -0.015590                    
P  9   9890.066130  14981.088558  19498.728535   -345.328010                    
V  9  -8536.454823  23465.410982 -13682.659485      0.023594                    
P 10 -20596.159392  -7412.777389 -15099.683102   -370.895205                    
V 10 -11746.283479 -15390.927052  23068.703177     -0.124332                    
P 11  18555.858707 -12782.209693  14050.235574    -45.107082                    
V 11  17961.581124   -647.800559 -24314.982448      0.076322                    
P 12  -6758.483320 -22642.659861 -12518.587078   -196.481237                    
V 12  10994.020592  10967.522157 -26218.412949     -0.057903                    
P 13  13204.376735 -22728.077897   2962.454539    289.746444                    
V 13    715.648289   4741.939729  31744.479937      0.065560                    
P 14  20567.653691   8602.804353 -14502.152808   -100.556637                    
V 14  10055.420795  15561.253932  23420.731997     -0.029831                    
P 15   1490.115327 -26020.565113  -4549.176464    -70.909245                    
V 15   4859.266768  -4530.857730  30539.555961      0.029449                    
P 16  -8062.678941  13402.804412  21121.262864   -489.023932                    
V 16 -17169.564855 -21521.346314   7460.364764     -0.039599                    
P 17  15900.527402  -2357.853012 -20726.775860    597.081173                    
V 17  -9325.980475  25612.249443  -9815.826814      0.048751                    
P 18 -19933.363193  -7313.992298  16015.913253    201.753350                    
V 18  19609.012023  -5430.786494  21815.078534     -0.092617                    
P 19  17399.473210  -9166.408818 -18018.640293    141.041320                    
V 19  -7910.521615  20987.912189 -18774.981310      0.049932                    
P 20  10923.339751 -11214.119659  21447.151975    515.945858                    
V 20  21027.851761  17433.754637  -1828.101332     -0.001799                    
P 21  -6953.881788  16038.485063 -19131.988345    160.204327                    
V 21 -25360.040931   5719.590140  14203.276091      0.003542                    
P 22 -17012.500271  12658.333613 -15469.255616    239.367235                    
V 22   5886.370415 -19719.578449 -22208.892436      0.059653                    
P 23 -20598.624914 -15818.783292  -5813.798697    -12.992304                    
V 23  -3309.710219  -6990.581081  30701.142772     -0.029521                    
P 24   -795.399504 -16172.151027 -21308.196488    259.823139                    
V 24  25628.947200  -6858.828136   4721.940866     -0.046996                    
P 25 -17428.611182 -20228.320981  -1068.137855    308.594996                    
V 25   2665.422868  -1075.392222 -31453.263716      0.050452                    
P 26 -16845.588309   4051.452188  20120.171093    196.707541                    
V 26 -17487.753697 -18924.956931 -10476.835684      0.028612                    
P 27 -12467.038909  21903.503238   7500.039997    176.596376                    
V 27    526.289570 -10231.150346  30316.989259      0.099728                    
P 28  17347.013094    841.334782 -19513.257134    373.422924                    
V 28  14435.891511  21613.052186  13637.403504     -0.025055                    
P 29  -7190.372405 -16605.586241  19370.857263   -500.190757                    
V 29  10358.750473 -22416.141236 -15387.858557     -0.043203                    
P 30  25276.370595   1472.935362   8513.368063   -522.566393                    
V 30  -9890.282731   5054.139526  28495.599988     -0.018126                    
P 31 -25860.807821   6613.739455   2434.035104   -172.309993                    
V 31  -3627.391843  -1944.384563 -31135.809737     -0.016647                    
P 32 -16438.092160   5520.138655 -19923.059380   -100.121762                    
V 32   6551.267125 -24857.594505 -12391.262348     -0.078780                    
EOF
